NORAD_CAT_ID,OBJECT_NAME,OBJECT_TYPE,EPOCH,MEAN_MOTION,ECCENTRICITY,INCLINATION,RA_OF_ASC_NODE,ARG_OF_PERICENTER,MEAN_ANOMALY,BSTAR,MEAN_MOTION_DOT,MEAN_MOTION_DDOT,TLE_LINE0,TLE_LINE1,TLE_LINE2,SEMIMAJOR_AXIS,PERIOD,APOGEE,PERIGEE,DECAYED
51978.0,STARLINK-3666,PAYLOAD,2024-06-28 01:34:21,15.08848592,0.0001291,53.2183,300.7452,73.9736,286.1398,2.0911e-05,4.5e-07,0.0,0 STARLINK-3666,1 51978U 22025Y   24180.06553173  .00000045  00000-0  20911-4 0  9992,2 51978  53.2183 300.7452 0001291  73.9736 286.1398 15.08848592128607,6917.854,95.437,540.612,538.826,0.0
51978.0,STARLINK-3666,PAYLOAD,2024-06-28 14:17:26,15.08844342,0.000112,53.2176,298.3656,81.5818,278.5301,0.00012243,1.661e-05,0.0,0 STARLINK-3666,1 51978U 22025Y   24180.59545127  .00001661  00000-0  12243-3 0  9993,2 51978  53.2176 298.3656 0001120  81.5818 278.5301 15.08844342127599,6917.867,95.437,540.507,538.957,0.0
51978.0,STARLINK-3666,PAYLOAD,2024-06-29 01:25:07,15.08859898,0.0001296,53.2184,296.2821,93.4156,266.6984,0.00015166,2.128e-05,0.0,0 STARLINK-3666,1 51978U 22025Y   24181.05911772  .00002128  00000-0  15166-3 0  9994,2 51978  53.2184 296.2821 0001296  93.4156 266.6984 15.08859898128756,6917.82,95.436,540.581,538.788,0.0
51978.0,STARLINK-3666,PAYLOAD,2024-06-29 14:08:16,15.08819142,0.0001449,53.2169,293.9037,104.0844,256.0309,-0.00017561,-3.08e-05,0.0,0 STARLINK-3666,1 51978U 22025Y   24181.58907647 -.00003080  00000-0 -17561-3 0  9999,2 51978  53.2169 293.9037 0001449 104.0844 256.0309 15.08819142128836,6917.944,95.439,540.812,538.807,0.0
51978.0,STARLINK-3666,PAYLOAD,2024-06-29 17:19:02,15.08821188,0.0001197,53.2174,293.3068,111.2353,248.8767,-0.000139,-2.498e-05,0.0,0 STARLINK-3666,1 51978U 22025Y   24181.72155566 -.00002498  00000-0 -13900-3 0  9995,2 51978  53.2174 293.3068 0001197 111.2353 248.8767 15.08821188127766,6917.938,95.439,540.631,538.975,0.0
51978.0,STARLINK-3666,PAYLOAD,2024-06-30 12:23:38,15.08838395,0.0001289,53.216,289.7469,69.0663,291.0467,0.00010743,1.422e-05,0.0,0 STARLINK-3666,1 51978U 22025Y   24182.51642097  .00001422  00000-0  10743-3 0  9999,2 51978  53.2160 289.7469 0001289  69.0663 291.0467 15.08838395128970,6917.885,95.438,540.642,538.859,0.0
51978.0,STARLINK-3666,PAYLOAD,2024-06-30 13:59:01,15.08854575,0.0001382,53.2183,289.4436,99.9498,260.165,6.4787e-05,7.44e-06,0.0,0 STARLINK-3666,1 51978U 22025Y   24182.58265167  .00000744  00000-0  64787-4 0  9999,2 51978  53.2183 289.4436 0001382  99.9498 260.1650 15.08854575127897,6917.836,95.437,540.657,538.745,0.0
51978.0,STARLINK-3666,PAYLOAD,2024-07-01 13:49:51,15.08803659,0.0001211,53.2169,284.9851,113.2733,246.8386,6.885e-05,8.07e-06,0.0,0 STARLINK-3666,1 51978U 22025Y   24183.57628507  .00000807  00000-0  68850-4 0  9995,2 51978  53.2169 284.9851 0001211 113.2733 246.8386 15.08803659129138,6917.991,95.44,540.694,539.019,0.0
51978.0,STARLINK-3666,PAYLOAD,2024-07-02 05:43:41,15.08828755,0.0001143,53.2172,282.0095,110.5648,249.5467,-6.1028e-06,-3.85e-06,0.0,0 STARLINK-3666,1 51978U 22025Y   24184.23867863 -.00000385  00000-0 -61028-5 0  9993,2 51978  53.2172 282.0095 0001143 110.5648 249.5467 15.08828755129235,6917.915,95.438,540.57,538.989,0.0
51978.0,STARLINK-3666,PAYLOAD,2024-07-02 13:40:36,15.08844271,0.0001256,53.2168,280.5247,120.8978,239.2138,1.9717e-05,2.6e-07,0.0,0 STARLINK-3666,1 51978U 22025Y   24184.56986887  .00000026  00000-0  19717-4 0  9994,2 51978  53.2168 280.5247 0001256 120.8978 239.2138 15.08844271129284,6917.867,95.437,540.601,538.863,0.0
51978.0,STARLINK-3666,PAYLOAD,2024-07-02 15:15:59,15.08847647,0.0001186,53.2174,280.2269,112.4,247.7118,4.6921e-05,4.59e-06,0.0,0 STARLINK-3666,1 51978U 22025Y   24184.63610653  .00000459  00000-0  46921-4 0  9994,2 51978  53.2174 280.2269 0001186 112.4000 247.7118 15.08847647128200,6917.857,95.437,540.542,538.902,0.0
51978.0,STARLINK-3666,PAYLOAD,2024-07-03 13:31:24,15.08831958,0.0001147,53.2172,276.0639,113.1638,246.9475,0.00026227,3.888e-05,0.0,0 STARLINK-3666,1 51978U 22025Y   24185.56347287  .00003888  00000-0  26227-3 0  9992,2 51978  53.2172 276.0639 0001147 113.1638 246.9475 15.08831958129435,6917.905,95.438,540.563,538.976,0.0
51978.0,STARLINK-3666,PAYLOAD,2024-07-03 16:42:10,15.08833794,0.0001148,53.2171,275.4691,112.9512,247.1601,0.00027862,4.148e-05,0.0,0 STARLINK-3666,1 51978U 22025Y   24185.69595328  .00004148  00000-0  27862-3 0  9993,2 51978  53.2171 275.4691 0001148 112.9512 247.1601 15.08833794128369,6917.899,95.438,540.559,538.97,0.0
51978.0,STARLINK-3666,PAYLOAD,2024-07-03 23:03:42,15.08847268,0.000107,53.2165,274.2788,92.2977,267.8137,0.000251,3.71e-05,0.0,0 STARLINK-3666,1 51978U 22025Y   24185.96090791  .00003710  00000-0  25100-3 0  9994,2 51978  53.2165 274.2788 0001070  92.2977 267.8137 15.08847268129494,6917.858,95.437,540.463,538.983,0.0
51978.0,STARLINK-3666,PAYLOAD,2024-07-04 13:22:11,15.08842729,0.0001072,53.2165,271.6021,93.7434,266.3681,2.9598e-05,1.83e-06,0.0,0 STARLINK-3666,1 51978U 22025Y   24186.55707322  .00000183  00000-0  29598-4 0  9992,2 51978  53.2165 271.6021 0001072  93.7434 266.3681 15.08842729129586,6917.872,95.437,540.479,538.995,0.0
51978.0,STARLINK-3666,PAYLOAD,2024-07-05 11:37:34,15.0884648,0.0001006,53.2157,267.4393,97.4928,262.6179,8.8832e-05,1.127e-05,0.0,0 STARLINK-3666,1 51978U 22025Y   24187.48442687  .00001127  00000-0  88832-4 0  9990,2 51978  53.2157 267.4393 0001006  97.4928 262.6179 15.08846480128632,6917.861,95.437,540.422,539.03,0.0
51978.0,STARLINK-3666,PAYLOAD,2024-07-06 05:06:48,15.08844021,0.0001452,53.2174,264.1688,96.4095,263.7062,1.9881e-05,2.8e-07,0.0,0 STARLINK-3666,1 51978U 22025Y   24188.21306690  .00000028  00000-0  19881-4 0  9992,2 51978  53.2174 264.1688 0001452  96.4095 263.7062 15.08844021129836,6917.868,95.437,540.738,538.729,0.0
51978.0,STARLINK-3666,PAYLOAD,2024-07-06 11:28:21,15.08839465,0.0001336,53.218,262.9794,87.2297,272.8848,3.8476e-05,3.24e-06,0.0,0 STARLINK-3666,1 51978U 22025Y   24188.47803146  .00000324  00000-0  38476-4 0  9998,2 51978  53.2180 262.9794 0001336  87.2297 272.8848 15.08839465129873,6917.882,95.438,540.671,538.823,0.0
51978.0,STARLINK-3666,PAYLOAD,2024-07-06 14:39:07,15.08841486,0.0001399,53.2182,262.3843,109.7916,250.3227,3.4269e-05,2.58e-06,0.0,0 STARLINK-3666,1 51978U 22025Y   24188.61050844  .00000258  00000-0  34269-4 0  9995,2 51978  53.2182 262.3843 0001399 109.7916 250.3227 15.08841486128801,6917.876,95.437,540.709,538.773,0.0
51978.0,STARLINK-3666,PAYLOAD,2024-07-07 09:43:45,15.08841568,0.0001396,53.2181,258.8158,99.1304,260.9847,2.2866e-05,7.6e-07,0.0,0 STARLINK-3666,1 51978U 22025Y   24189.40538840  .00000076  00000-0  22866-4 0  9998,2 51978  53.2181 258.8158 0001396  99.1304 260.9847 15.08841568128928,6917.876,95.437,540.706,538.775,0.0
51978.0,STARLINK-3666,PAYLOAD,2024-07-08 04:48:23,15.08838007,0.0001371,53.2177,255.2476,95.5965,264.5184,7.6199e-05,9.25e-06,0.0,0 STARLINK-3666,1 51978U 22025Y   24190.20026871  .00000925  00000-0  76199-4 0  9995,2 51978  53.2177 255.2476 0001371  95.5965 264.5184 15.08838007130137,6917.886,95.438,540.7,538.803,0.0
51978.0,STARLINK-3666,PAYLOAD,2024-07-08 11:09:55,15.08837535,0.0001326,53.2178,254.0586,93.3609,266.7534,4.8344e-05,4.82e-06,0.0,0 STARLINK-3666,1 51978U 22025Y   24190.46523005  .00000482  00000-0  48344-4 0  9993,2 51978  53.2178 254.0586 0001326  93.3609 266.7534 15.08837535129088,6917.888,95.438,540.67,538.836,0.0
51978.0,STARLINK-3666,PAYLOAD,2024-07-08 20:42:14,15.0884154,0.0001325,53.2178,252.2745,93.1842,266.9302,6.6355e-05,7.68e-06,0.0,0 STARLINK-3666,1 51978U 22025Y   24190.86266749  .00000768  00000-0  66355-4 0  9995,2 51978  53.2178 252.2745 0001325  93.1842 266.9302 15.08841540129144,6917.876,95.437,540.657,538.824,0.0
51978.0,STARLINK-3666,PAYLOAD,2024-07-09 11:00:43,15.0883629,0.0001314,53.2178,249.5992,95.2142,264.9,2.4537e-05,1.03e-06,0.0,0 STARLINK-3666,1 51978U 22025Y   24191.45883245  .00000103  00000-0  24537-4 0  9996,2 51978  53.2178 249.5992 0001314  95.2142 264.9000 15.08836290130322,6917.892,95.438,540.666,538.848,0.0
51978.0,STARLINK-3666,PAYLOAD,2024-07-10 10:51:30,15.08833591,0.0001332,53.2175,245.1388,94.6384,265.476,1.4239e-05,-6.1e-07,0.0,0 STARLINK-3666,1 51978U 22025Y   24192.45243653 -.00000061  00000-0  14239-4 0  9992,2 51978  53.2175 245.1388 0001332  94.6384 265.4760 15.08833591129385,6917.9,95.438,540.686,538.844,0.0
51978.0,STARLINK-3666,PAYLOAD,2024-07-11 12:17:40,15.08839426,0.000119,53.2159,240.3791,83.5491,276.5636,7.1887e-05,8.56e-06,0.0,0 STARLINK-3666,1 51978U 22025Y   24193.51227314  .00000856  00000-0  71887-4 0  9999,2 51978  53.2159 240.3791 0001190  83.5491 276.5636 15.08839426129546,6917.882,95.438,540.57,538.924,0.0
51978.0,STARLINK-3666,PAYLOAD,2024-07-11 20:14:35,15.08842307,0.0001201,53.216,238.8924,84.2615,275.8514,8.7755e-05,1.109e-05,0.0,0 STARLINK-3666,1 51978U 22025Y   24193.84347089  .00001109  00000-0  87755-4 0  9990,2 51978  53.2160 238.8924 0001201  84.2615 275.8514 15.08842307130683,6917.873,95.437,540.569,538.908,0.0
51978.0,STARLINK-3666,PAYLOAD,2024-07-12 10:33:04,15.08838338,0.0001265,53.2161,236.2168,84.7955,275.3181,7.5e-05,9.06e-06,0.0,0 STARLINK-3666,1 51978U 22025Y   24194.43963483  .00000906  00000-0  75000-4 0  9992,2 51978  53.2161 236.2168 0001265  84.7955 275.3181 15.08838338129680,6917.885,95.438,540.626,538.875,0.0
51978.0,STARLINK-3666,PAYLOAD,2024-07-12 20:05:23,15.0884148,0.0001279,53.2161,234.4327,84.2403,275.8735,7.918e-05,9.73e-06,0.0,0 STARLINK-3666,1 51978U 22025Y   24194.83707302  .00000973  00000-0  79180-4 0  9999,2 51978  53.2161 234.4327 0001279  84.2403 275.8735 15.08841480129744,6917.876,95.437,540.626,538.856,0.0
51978.0,STARLINK-3666,PAYLOAD,2024-07-13 02:26:55,15.08842948,0.0001287,53.2162,233.2433,84.574,275.5399,4.1222e-05,3.68e-06,0.0,0 STARLINK-3666,1 51978U 22025Y   24195.10203329  .00000368  00000-0  41222-4 0  9994,2 51978  53.2162 233.2433 0001287  84.5740 275.5399 15.08842948130875,6917.871,95.437,540.627,538.846,0.0
